1 24960U 97054A   18130.75849475 +.00000192 +00000-0 +11156-3 0  9997
2 24960 062.6838 180.7439 6468865 294.9583 012.8424 03.18684819160243